{"type": "FeatureCollection", "features": [ {"type": "Feature", "properties": {"norad_id": 33841, "name": "COSMOS 2251 DEB", "group": "cosmos-2251-debris", "lat": 26.78714660832162, "lon": 94.18501445220053, "alt_km": 776.634917130953, "timestamp": "2025-12-10T07:43:55.172043+00:00", "meta": {"OBJECT_NAME": "COSMOS 2251 DEB", "OBJECT_ID": "1993-036CJ", "EPOCH": "2025-12-09T19:28:05.588256", "MEAN_MOTION": 14.37854348, "ECCENTRICITY": 0.00204, "INCLINATION": 74.0377, "RA_OF_ASC_NODE": 283.4337, "ARG_OF_PERICENTER": 4.4672, "MEAN_ANOMALY": 23.3953, "EPHEMERIS_TYPE": 0, "CLASSIFICATION_TYPE": "U", "NORAD_CAT_ID": 33841, "ELEMENT_SET_NO": 999, "REV_AT_EPOCH": 88072, "BSTAR": 0.00044408, "MEAN_MOTION_DOT": 1.316e-05, "MEAN_MOTION_DDOT": 0}, "tle": {"line1": "1 33841U 93036CJ  25343.81117579  .00001316  00000+0  44408-3 0  9999", "line2": "2 33841  74.0377 283.4337 0020400   4.4672  23.3953 14.37854348880725"}}, "geometry": {"type": "Point", "coordinates": [94.18501445220053, 26.78714660832162]}}, {"type": "Feature", "properties": {"norad_id": 33842, "name": "COSMOS 2251 DEB", "group": "cosmos-2251-debris", "lat": 4.497156768281962, "lon": -134.57025173420027, "alt_km": 723.3285735512573, "timestamp": "2025-12-10T07:43:55.172053+00:00", "meta": {"OBJECT_NAME": "COSMOS 2251 DEB", "OBJECT_ID": "1993-036CK", "EPOCH": "2025-12-09T15:04:05.794176", "MEAN_MOTION": 14.42688482, "ECCENTRICITY": 0.0047202, "INCLINATION": 74.0332, "RA_OF_ASC_NODE": 225.4277, "ARG_OF_PERICENTER": 333.3734, "MEAN_ANOMALY": 26.4998, "EPHEMERIS_TYPE": 0, "CLASSIFICATION_TYPE": "U", "NORAD_CAT_ID": 33842, "ELEMENT_SET_NO": 999, "REV_AT_EPOCH": 88292, "BSTAR": 0.00052482, "MEAN_MOTION_DOT": 1.743e-05, "MEAN_MOTION_DDOT": 0}, "tle": {"line1": "1 33842U 93036CK  25343.62784484  .00001743  00000+0  52482-3 0  9999", "line2": "2 33842  74.0332 225.4277 0047202 333.3734  26.4998 14.42688482882925"}}, "geometry": {"type": "Point", "coordinates": [-134.57025173420027, 4.497156768281962]}}, {"type": "Feature", "properties": {"norad_id": 33844, "name": "COSMOS 2251 DEB", "group": "cosmos-2251-debris", "lat": 12.075244250963589, "lon": 60.696363131986566, "alt_km": 767.1248747556638, "timestamp": "2025-12-10T07:43:55.172064+00:00", "meta": {"OBJECT_NAME": "COSMOS 2251 DEB", "OBJECT_ID": "1993-036CM", "EPOCH": "2025-12-09T15:41:38.190336", "MEAN_MOTION": 14.33706708, "ECCENTRICITY": 0.0047079, "INCLINATION": 74.0672, "RA_OF_ASC_NODE": 58.4122, "ARG_OF_PERICENTER": 81.3539, "MEAN_ANOMALY": 84.1245, "EPHEMERIS_TYPE": 0, "CLASSIFICATION_TYPE": "U", "NORAD_CAT_ID": 33844, "ELEMENT_SET_NO": 999, "REV_AT_EPOCH": 87681, "BSTAR": 0.00064757, "MEAN_MOTION_DOT": 1.795e-05, "MEAN_MOTION_DDOT": 0}, "tle": {"line1": "1 33844U 93036CM  25343.65391424  .00001795  00000+0  64757-3 0  9997", "line2": "2 33844  74.0672  58.4122 0047079  81.3539  84.1245 14.33706708876811"}}, "geometry": {"type": "Point", "coordinates": [60.696363131986566, 12.075244250963589]}}, {"type": "Feature", "properties": {"norad_id": 33848, "name": "COSMOS 2251 DEB", "group": "cosmos-2251-debris", "lat": 69.57279185997204, "lon": 131.89637301461062, "alt_km": 717.0139086448762, "timestamp": "2025-12-10T07:43:55.172074+00:00", "meta": {"OBJECT_NAME": "COSMOS 2251 DEB", "OBJECT_ID": "1993-036CR", "EPOCH": "2025-12-09T11:59:54.432384", "MEAN_MOTION": 14.44027926, "ECCENTRICITY": 0.00410034, "INCLINATION": 74.0321, "RA_OF_ASC_NODE": 3.6706, "ARG_OF_PERICENTER": 60.6259, "MEAN_ANOMALY": 89.2733, "EPHEMERIS_TYPE": 0, "CLASSIFICATION_TYPE": "U", "NORAD_CAT_ID": 33848, "ELEMENT_SET_NO": 999, "REV_AT_EPOCH": 87784, "BSTAR": 0.001543824, "MEAN_MOTION_DOT": 5.312e-05, "MEAN_MOTION_DDOT": 0}, "tle": {"line1": "1 33848U 93036CR  25343.49993556  .00005312  00000+0  15438-2 0  9997", "line2": "2 33848  74.0321   3.6706 0041003  60.6259  89.2733 14.44027926877848"}}, "geometry": {"type": "Point", "coordinates": [131.89637301461062, 69.57279185997204]}}, {"type": "Feature", "properties": {"norad_id": 33892, "name": "COSMOS 2251 DEB", "group": "cosmos-2251-debris", "lat": -27.01695360342133, "lon": -65.00853863851485, "alt_km": 790.7898942762504, "timestamp": "2025-12-10T07:43:55.172084+00:00", "meta": {"OBJECT_NAME": "COSMOS 2251 DEB", "OBJECT_ID": "1993-036CV", "EPOCH": "2025-12-09T10:49:32.694240", "MEAN_MOTION": 14.23318421, "ECCENTRICITY": 0.01131155, "INCLINATION": 73.803, "RA_OF_ASC_NODE": 108.057, "ARG_OF_PERICENTER": 139.9101, "MEAN_ANOMALY": 285.3001, "EPHEMERIS_TYPE": 0, "CLASSIFICATION_TYPE": "U", "NORAD_CAT_ID": 33892, "ELEMENT_SET_NO": 999, "REV_AT_EPOCH": 86908, "BSTAR": 0.0014998636, "MEAN_MOTION_DOT": 3.606e-05, "MEAN_MOTION_DDOT": 0}, "tle": {"line1": "1 33892U 93036CV  25343.45107285  .00003606  00000+0  14999-2 0  9993", "line2": "2 33892  73.8030 108.0570 0113115 139.9101 285.3001 14.23318421869084"}}, "geometry": {"type": "Point", "coordinates": [-65.00853863851485, -27.01695360342133]}}, {"type": "Feature", "properties": {"norad_id": 33894, "name": "COSMOS 2251 DEB", "group": "cosmos-2251-debris", "lat": -66.69947205811145, "lon": -49.74299650382754, "alt_km": 760.9793020024908, "timestamp": "2025-12-10T07:43:55.172095+00:00", "meta": {"OBJECT_NAME": "COSMOS 2251 DEB", "OBJECT_ID": "1993-036CX", "EPOCH": "2025-12-08T10:38:58.588224", "MEAN_MOTION": 13.21283258, "ECCENTRICITY": 0.05795731, "INCLINATION": 73.7668, "RA_OF_ASC_NODE": 355.7273, "ARG_OF_PERICENTER": 275.6874, "MEAN_ANOMALY": 77.844, "EPHEMERIS_TYPE": 0, "CLASSIFICATION_TYPE": "U", "NORAD_CAT_ID": 33894, "ELEMENT_SET_NO": 999, "REV_AT_EPOCH": 80651, "BSTAR": 0.0026326972, "MEAN_MOTION_DOT": 2.6e-05, "MEAN_MOTION_DDOT": 0}, "tle": {"line1": "1 33894U 93036CX  25342.44373366  .00002600  00000+0  26327-2 0  9999", "line2": "2 33894  73.7668 355.7273 0579573 275.6874  77.8440 13.21283258806518"}}, "geometry": {"type": "Point", "coordinates": [-49.74299650382754, -66.69947205811145]}}, {"type": "Feature", "properties": {"norad_id": 33896, "name": "COSMOS 2251 DEB", "group": "cosmos-2251-debris", "lat": -44.88805786830804, "lon": 144.2012701297041, "alt_km": 751.8684689180191, "timestamp": "2025-12-10T07:43:55.172105+00:00", "meta": {"OBJECT_NAME": "COSMOS 2251 DEB", "OBJECT_ID": "1993-036CZ", "EPOCH": "2025-12-09T18:29:42.766368", "MEAN_MOTION": 14.19026613, "ECCENTRICITY": 0.0126304, "INCLINATION": 73.7661, "RA_OF_ASC_NODE": 162.0732, "ARG_OF_PERICENTER": 338.2518, "MEAN_ANOMALY": 38.7007, "EPHEMERIS_TYPE": 0, "CLASSIFICATION_TYPE": "U", "NORAD_CAT_ID": 33896, "ELEMENT_SET_NO": 999, "REV_AT_EPOCH": 86698, "BSTAR": 0.00093002, "MEAN_MOTION_DOT": 2.075e-05, "MEAN_MOTION_DDOT": 0}, "tle": {"line1": "1 33896U 93036CZ  25343.77063387  .00002075  00000+0  93002-3 0  9998", "line2": "2 33896  73.7661 162.0732 0126304 338.2518  38.7007 14.19026613866983"}}, "geometry": {"type": "Point", "coordinates": [144.2012701297041, -44.88805786830804]}}, {"type": "Feature", "properties": {"norad_id": 33899, "name": "COSMOS 2251 DEB", "group": "cosmos-2251-debris", "lat": -31.885112946931258, "lon": 80.09825441133628, "alt_km": 735.2143412854793, "timestamp": "2025-12-10T07:43:55.172115+00:00", "meta": {"OBJECT_NAME": "COSMOS 2251 DEB", "OBJECT_ID": "1993-036DC", "EPOCH": "2025-12-09T17:46:50.710944", "MEAN_MOTION": 14.61140351, "ECCENTRICITY": 0.0057055, "INCLINATION": 74.054, "RA_OF_ASC_NODE": 91.4532, "ARG_OF_PERICENTER": 155.015, "MEAN_ANOMALY": 355.225, "EPHEMERIS_TYPE": 0, "CLASSIFICATION_TYPE": "U", "NORAD_CAT_ID": 33899, "ELEMENT_SET_NO": 999, "REV_AT_EPOCH": 88795, "BSTAR": 0.0017306, "MEAN_MOTION_DOT": 8.694e-05, "MEAN_MOTION_DDOT": 0}, "tle": {"line1": "1 33899U 93036DC  25343.74086471  .00008694  00000+0  17306-2 0  9992", "line2": "2 33899  74.0540  91.4532 0057055 155.0150 355.2250 14.61140351887952"}}, "geometry": {"type": "Point", "coordinates": [80.09825441133628, -31.885112946931258]}}, {"type": "Feature", "properties": {"norad_id": 33900, "name": "COSMOS 2251 DEB", "group": "cosmos-2251-debris", "lat": 25.11803993150835, "lon": 12.19102984692533, "alt_km": 719.1971216684706, "timestamp": "2025-12-10T07:43:55.172125+00:00", "meta": {"OBJECT_NAME": "COSMOS 2251 DEB", "OBJECT_ID": "1993-036DD", "EPOCH": "2025-12-09T12:36:26.378784", "MEAN_MOTION": 14.58330002, "ECCENTRICITY": 0.00470243, "INCLINATION": 74.0193, "RA_OF_ASC_NODE": 5.9875, "ARG_OF_PERICENTER": 159.0041, "MEAN_ANOMALY": 5.905, "EPHEMERIS_TYPE": 0, "CLASSIFICATION_TYPE": "U", "NORAD_CAT_ID": 33900, "ELEMENT_SET_NO": 999, "REV_AT_EPOCH": 88989, "BSTAR": 0.00064787145, "MEAN_MOTION_DOT": 3.015e-05, "MEAN_MOTION_DDOT": 0}, "tle": {"line1": "1 33900U 93036DD  25343.52530531  .00003015  00000+0  64787-3 0  9990", "line2": "2 33900  74.0193   5.9875 0047024 159.0041   5.9050 14.58330002889899"}}, "geometry": {"type": "Point", "coordinates": [12.19102984692533, 25.11803993150835]}}, {"type": "Feature", "properties": {"norad_id": 33901, "name": "COSMOS 2251 DEB", "group": "cosmos-2251-debris", "lat": -45.873504510029186, "lon": -108.1146279520322, "alt_km": 509.04373441222015, "timestamp": "2025-12-10T07:43:55.172135+00:00", "meta": {"OBJECT_NAME": "COSMOS 2251 DEB", "OBJECT_ID": "1993-036DE", "EPOCH": "2025-12-09T14:53:04.517088", "MEAN_MOTION": 15.15353867, "ECCENTRICITY": 0.003285, "INCLINATION": 73.773, "RA_OF_ASC_NODE": 55.8961, "ARG_OF_PERICENTER": 188.2216, "MEAN_ANOMALY": 171.8444, "EPHEMERIS_TYPE": 0, "CLASSIFICATION_TYPE": "U", "NORAD_CAT_ID": 33901, "ELEMENT_SET_NO": 999, "REV_AT_EPOCH": 89466, "BSTAR": 0.0041114, "MEAN_MOTION_DOT": 0.0007943, "MEAN_MOTION_DDOT": 0}, "tle": {"line1": "1 33901U 93036DE  25343.62019117  .00079430  00000+0  41114-2 0  9996", "line2": "2 33901  73.7730  55.8961 0032850 188.2216 171.8444 15.15353867894661"}}, "geometry": {"type": "Point", "coordinates": [-108.1146279520322, -45.873504510029186]}}]}